ECHOSTAR 25             
1 68126U 26045A   26170.47683574  .00000000  00000+0  00000+0 0  9998
2 68126   0.0193  17.4462 0001908  72.4129 239.5053  1.00268606  1013
